NORAD_CAT_ID,OBJECT_NAME,OBJECT_TYPE,EPOCH,MEAN_MOTION,ECCENTRICITY,INCLINATION,RA_OF_ASC_NODE,ARG_OF_PERICENTER,MEAN_ANOMALY,BSTAR,MEAN_MOTION_DOT,MEAN_MOTION_DDOT,TLE_LINE0,TLE_LINE1,TLE_LINE2,SEMIMAJOR_AXIS,PERIOD,APOGEE,PERIGEE,DECAYED
50803.0,STARLINK-3321,PAYLOAD,2022-04-09 22:00:00,15.15780423,0.0001825,53.2172,107.708,42.8223,192.5409,-0.04021,-0.00723376,0.0,0 STARLINK-3321,1 50803U 22001A   22099.91667824 -.00723376  00000-0 -40210-1 0  9994,2 50803  53.2172 107.7080 0001825  42.8223 192.5409 15.15780423  3658,6896.746999999999,95.001,519.871,517.354,0.0
50803.0,STARLINK-3321,PAYLOAD,2022-04-10 14:00:01,15.14762311,0.0001718,53.2172,104.6893,45.0193,228.9768,-0.041563,-0.00726118,0.0,0 STARLINK-3321,1 50803U 22001A   22100.58334491 -.00726118  00000-0 -41563-1 0  9990,2 50803  53.2172 104.6893 0001718  45.0193 228.9768 15.14762311  3644,6899.837,95.064,522.888,520.5169999999998,0.0
50803.0,STARLINK-3321,PAYLOAD,2022-04-10 20:00:01,15.14376664,0.0001811,53.2173,103.5567,43.3438,154.5102,-0.041663,-0.00720365,0.0,0 STARLINK-3321,1 50803U 22001A   22100.83334491 -.00720365  00000-0 -41663-1 0  9997,2 50803  53.2173 103.5567 0001811  43.3438 154.5102 15.14376664 15964,6901.009,95.089,524.123,521.624,0.0
50803.0,STARLINK-3321,PAYLOAD,2022-04-10 22:00:00,15.14249152,0.0001693,53.2173,103.1794,45.2094,247.1871,-0.041861,-0.00721108,0.0,0 STARLINK-3321,1 50803U 22001A   22100.91667824 -.00721108  00000-0 -41861-1 0  9991,2 50803  53.2173 103.1794 0001693  45.2094 247.1871 15.14249152  3644,6901.396,95.097,524.429,522.0930000000002,0.0
50803.0,STARLINK-3321,PAYLOAD,2022-04-11 14:00:01,15.13232448,0.0001592,53.2173,100.1678,46.2869,281.0652,-0.043413,-0.00726271,0.0,0 STARLINK-3321,1 50803U 22001A   22101.58334491 -.00726271  00000-0 -43413-1 0  9997,2 50803  53.2173 100.1678 0001592  46.2869 281.0652 15.13232448  3644,6904.486999999999,95.161,527.451,525.253,0.0
50803.0,STARLINK-3321,PAYLOAD,2022-04-11 20:00:01,15.12846277,0.0001764,53.2174,99.0378,43.6268,206.2046,-0.043449,-0.00719521,0.0,0 STARLINK-3321,1 50803U 22001A   22101.83334491 -.00719521  00000-0 -43449-1 0  9994,2 50803  53.2174  99.0378 0001764  43.6268 206.2046 15.12846277 16115,6905.6619999999975,95.185,528.745,526.309,0.0
50803.0,STARLINK-3321,PAYLOAD,2022-04-11 22:00:00,15.12718433,0.0001682,53.2173,98.6615,41.7785,302.1358,-0.043614,-0.00719644,0.0,0 STARLINK-3321,1 50803U 22001A   22101.91667824 -.00719644  00000-0 -43614-1 0  9992,2 50803  53.2173  98.6615 0001682  41.7785 302.1358 15.12718433  3621,6906.051,95.193,529.078,526.754,0.0
50803.0,STARLINK-3321,PAYLOAD,2022-04-12 14:00:01,15.11701861,0.0001764,53.2173,95.6569,37.1313,338.0619999999999,-0.045245,-0.00725189,0.0,0 STARLINK-3321,1 50803U 22001A   22102.58334491 -.00725189  00000-0 -45245-1 0  9990,2 50803  53.2173  95.6569 0001764  37.1313 338.0620 15.11701861  3641,6909.147,95.257,532.23,529.793,0.0
50803.0,STARLINK-3321,PAYLOAD,2022-04-12 20:00:01,15.11315771,0.0001761999999999,53.2174,94.5296,40.9895,255.3043,-0.045291,-0.00718619,0.0,0 STARLINK-3321,1 50803U 22001A   22102.83334491 -.00718619  00000-0 -45291-1 0  9999,2 50803  53.2174  94.5296 0001762  40.9895 255.3043 15.11315771 16276,6910.323,95.281,533.406,530.971,0.0
50803.0,STARLINK-3321,PAYLOAD,2022-04-12 22:00:00,15.11188614,0.0001773,53.2173,94.1543,37.8202,352.0964,-0.045518,-0.00719595,0.0,0 STARLINK-3321,1 50803U 22001A   22102.91667824 -.00719595  00000-0 -45518-1 0  9993,2 50803  53.2173  94.1543 0001773  37.8202 352.0964 15.11188614  3621,6910.7109999999975,95.289,533.8009999999998,531.351,0.0
50803.0,STARLINK-3321,PAYLOAD,2022-04-13 14:00:03,15.10170873,0.0001528,53.2173,91.1565,48.8067,8.8388,-0.047086,-0.00723319,0.0,0 STARLINK-3321,1 50803U 22001A   22103.58336806 -.00723319  00000-0 -47086-1 0  9991,2 50803  53.2173  91.1565 0001528  48.8067   8.8388 15.10170873  3668,6913.815,95.353,536.737,534.624,0.0
50803.0,STARLINK-3321,PAYLOAD,2022-04-13 20:00:01,15.09785564,0.0001575999999999,53.2173,90.0319,45.4544,291.8495,-0.047245,-0.00718421,0.0,0 STARLINK-3321,1 50803U 22001A   22103.83335648 -.00718421  00000-0 -47245-1 0  9997,2 50803  53.2173  90.0319 0001576  45.4544 291.8495 15.09785564 16427,6914.9919999999975,95.378,537.946,535.7669999999998,0.0
50803.0,STARLINK-3321,PAYLOAD,2022-04-13 22:00:00,15.09660333,0.0001691,53.2173,89.6574,43.4068,26.9969,-0.047722,-0.00722853,0.0,0 STARLINK-3321,1 50803U 22001A   22103.91667824 -.00722853  00000-0 -47722-1 0  9994,2 50803  53.2173  89.6574 0001691  43.4068  26.9969 15.09660333  3640,6915.374,95.386,538.408,536.07,0.0
50803.0,STARLINK-3321,PAYLOAD,2022-04-14 06:00:00,15.08933963,0.0001668,53.2169,88.1605,46.2672,36.4688,-0.0091687,-0.00143682,0.0,0 STARLINK-3321,1 50803U 22001A   22104.25001157 -.00143682  00000-0 -91687-2 0  9990,2 50803  53.2169  88.1605 0001668  46.2672  36.4688 15.08933963 16481,6917.593000000003,95.432,540.612,538.304,0.0
50803.0,STARLINK-3321,PAYLOAD,2022-04-14 12:00:00,15.08838489,0.0001602,53.2171,87.0396,50.6283,310.8533,-0.00017753,-3.112e-05,0.0,0 STARLINK-3321,1 50803U 22001A   22104.50001157 -.00003112  00000-0 -17753-3 0  9994,2 50803  53.2171  87.0396 0001602  50.6283 310.8533 15.08838489 16524,6917.885,95.438,540.8580000000002,538.6419999999998,0.0
50803.0,STARLINK-3321,PAYLOAD,2022-04-14 14:00:01,15.08837983,0.00016,53.2173,86.6651,49.987,44.3932,-0.00012224,-2.233e-05,0.0,0 STARLINK-3321,1 50803U 22001A   22104.58334491 -.00002233  00000-0 -12224-3 0  9993,2 50803  53.2173  86.6651 0001600  49.9870  44.3932 15.08837983  3645,6917.887,95.438,540.8580000000002,538.645,0.0
50803.0,STARLINK-3321,PAYLOAD,2022-04-14 20:00:01,15.08839068,0.0001693,53.2156,85.5316,50.3387,322.8385,0.0037895,0.00060539,0.0,0 STARLINK-3321,1 50803U 22001A   22104.83334491  .00060539  00000-0  37895-2 0  9992,2 50803  53.2156  85.5316 0001693  50.3387 322.8385 15.08839068 16571,6917.8830000000025,95.438,540.919,538.577,0.0
50803.0,STARLINK-3321,PAYLOAD,2022-04-14 22:00:00,15.08857383,0.0001719,53.216,85.1574,51.911,54.1643,0.002502,0.00039776,0.0,0 STARLINK-3321,1 50803U 22001A   22104.91667824  .00039776  00000-0  25020-2 0  9996,2 50803  53.2160  85.1574 0001719  51.9110  54.1643 15.08857383  3644,6917.8269999999975,95.436,540.881,538.503,0.0
50803.0,STARLINK-3321,PAYLOAD,2022-04-15 05:29:03,15.09620756,0.0001587,53.216,83.7591,13.5576,346.5459,-0.0083797999999999,-0.00134022,0.0,0 STARLINK-3321,1 50803U 22001A   22105.22850870 -.00134022  00000-0 -83798-2 0  9994,2 50803  53.2160  83.7591 0001587  13.5576 346.5459 15.09620756 16639,6915.495,95.388,538.457,536.262,0.0
50803.0,STARLINK-3321,PAYLOAD,2022-04-15 10:15:07,15.09489535,0.0001337,53.217,82.8671,39.3156,320.7933,-0.0069731,-0.00111517,0.0,0 STARLINK-3321,1 50803U 22001A   22105.42717168 -.00111517  00000-0 -69731-2 0  9993,2 50803  53.2170  82.8671 0001337  39.3156 320.7933 15.09489535 16664,6915.896,95.396,538.685,536.836,0.0
50803.0,STARLINK-3321,PAYLOAD,2022-04-15 14:00:01,15.08842706,0.0001756,53.2161,82.1654,45.5537,83.7649,-0.0034302,-0.00054472,0.0,0 STARLINK-3321,1 50803U 22001A   22105.58334491 -.00054472  00000-0 -34302-2 0  9996,2 50803  53.2161  82.1654 0001756  45.5537  83.7649 15.08842706  3630,6917.871999999999,95.437,540.952,538.5219999999998,0.0
50803.0,STARLINK-3321,PAYLOAD,2022-04-15 20:00:01,15.08776958,0.0001641,53.2163,81.042,51.1982,356.8065,0.0047648,0.00076233,0.0,0 STARLINK-3321,1 50803U 22001A   22105.83334491  .00076233  00000-0  47648-2 0  9998,2 50803  53.2163  81.0420 0001641  51.1982 356.8065 15.08776958 16726,6918.073,95.442,541.073,538.803,0.0
50803.0,STARLINK-3321,PAYLOAD,2022-04-15 22:00:00,15.08791331,0.0001651,53.2165,80.668,52.465,88.4208,0.0044816,0.00071667,0.0,0 STARLINK-3321,1 50803U 22001A   22105.91667824  .00071667  00000-0  44816-2 0  9996,2 50803  53.2165  80.6680 0001651  52.4650  88.4208 15.08791331  3611,6918.029,95.441,541.036,538.752,0.0
50803.0,STARLINK-3321,PAYLOAD,2022-04-16 04:00:00,15.08840332,0.0001751,53.2164,79.5473,45.9128,13.6318,-0.000384,-6.394e-05,0.0,0 STARLINK-3321,1 50803U 22001A   22106.16667824 -.00006394  00000-0 -38400-3 0  9994,2 50803  53.2164  79.5473 0001751  45.9128  13.6318 15.08840332 16774,6917.879,95.438,540.956,538.533,0.0
50803.0,STARLINK-3321,PAYLOAD,2022-04-16 14:00:01,15.08845125,0.0001629,53.2162,77.6762,43.8687,120.1676,-0.0029361,-0.0004672,0.0,0 STARLINK-3321,1 50803U 22001A   22106.58334491 -.00046720  00000-0 -29361-2 0  9993,2 50803  53.2162  77.6762 0001629  43.8687 120.1676 15.08845125  3630,6917.865,95.437,540.857,538.6030000000002,0.0
50803.0,STARLINK-3321,PAYLOAD,2022-04-16 22:00:01,15.08822129,0.0001533,53.2166,76.1791,49.9412,125.7349,0.0010812,0.00016953,0.0,0 STARLINK-3321,1 50803U 22001A   22106.91668981  .00016953  00000-0  10812-2 0  9998,2 50803  53.2166  76.1791 0001533  49.9412 125.7349 15.08822129  3623,6917.935,95.439,540.861,538.739,0.0
50803.0,STARLINK-3321,PAYLOAD,2022-04-17 14:00:01,15.08847716,0.0001631,53.2163,73.1872,45.4805,153.2897,-0.0016607,-0.00026627,0.0,0 STARLINK-3321,1 50803U 22001A   22107.58334491 -.00026627  00000-0 -16607-2 0  9997,2 50803  53.2163  73.1872 0001631  45.4805 153.2897 15.08847716 16989,6917.857,95.437,540.85,538.594,0.0
50803.0,STARLINK-3321,PAYLOAD,2022-04-17 22:00:00,15.08844663,0.0001585,53.2166,71.6903,52.1726,158.1898,0.00085379,0.00013328,0.0,0 STARLINK-3321,1 50803U 22001A   22107.91667824  .00013328  00000-0  85379-3 0  9998,2 50803  53.2166  71.6903 0001585  52.1726 158.1898 15.08844663  3625,6917.866,95.437,540.828,538.635,0.0
50803.0,STARLINK-3321,PAYLOAD,2022-04-18 06:00:00,15.08835844,0.0001783,53.2167,70.1958,45.3972,176.5743,0.0015856,0.00025034,0.0,0 STARLINK-3321,1 50803U 22001A   22108.25001157  .00025034  00000-0  15856-2 0  9996,2 50803  53.2167  70.1958 0001783  45.3972 176.5743 15.08835844 17086,6917.893,95.438,540.992,538.525,0.0
